[{"OBJECT_NAME":"ONEWEB-0629","OBJECT_ID":"2023-004AG","EPOCH":"2026-03-22T05:49:14.030400","MEAN_MOTION":13.1764883,"ECCENTRICITY":0.00015947,"INCLINATION":87.917,"RA_OF_ASC_NODE":23.1367,"ARG_OF_PERICENTER":85.5592,"MEAN_ANOMALY":274.5722,"EPHEMERIS_TYPE":0,"CLASSIFICATION_TYPE":"U","NORAD_CAT_ID":55170,"ELEMENT_SET_NO":999,"REV_AT_EPOCH":15613,"BSTAR":0.00016337931,"MEAN_MOTION_DOT":7.6e-7,"MEAN_MOTION_DDOT":0},{"OBJECT_NAME":"ONEWEB-0631","OBJECT_ID":"2023-004AH","EPOCH":"2026-03-22T05:20:28.230144","MEAN_MOTION":13.18687715,"ECCENTRICITY":0.00020919,"INCLINATION":87.925,"RA_OF_ASC_NODE":352.7126,"ARG_OF_PERICENTER":66.3121,"MEAN_ANOMALY":293.823,"EPHEMERIS_TYPE":0,"CLASSIFICATION_TYPE":"U","NORAD_CAT_ID":55171,"ELEMENT_SET_NO":999,"REV_AT_EPOCH":15821,"BSTAR":0.00026660758,"MEAN_MOTION_DOT":1.18e-6,"MEAN_MOTION_DDOT":0},{"OBJECT_NAME":"ONEWEB-0709","OBJECT_ID":"2023-004AJ","EPOCH":"2026-03-21T20:16:09.429312","MEAN_MOTION":13.11419271,"ECCENTRICITY":0.00027513,"INCLINATION":87.8882,"RA_OF_ASC_NODE":38.4447,"ARG_OF_PERICENTER":76.8952,"MEAN_ANOMALY":283.2483,"EPHEMERIS_TYPE":0,"CLASSIFICATION_TYPE":"U","NORAD_CAT_ID":55172,"ELEMENT_SET_NO":999,"REV_AT_EPOCH":15442,"BSTAR":-0.00015077796,"MEAN_MOTION_DOT":-4.1e-7,"MEAN_MOTION_DDOT":0},{"OBJECT_NAME":"ONEWEB-0710","OBJECT_ID":"2023-004AK","EPOCH":"2026-03-22T06:09:53.287200","MEAN_MOTION":13.17649037,"ECCENTRICITY":0.00017778,"INCLINATION":87.9168,"RA_OF_ASC_NODE":23.1289,"ARG_OF_PERICENTER":73.9115,"MEAN_ANOMALY":286.2212,"EPHEMERIS_TYPE":0,"CLASSIFICATION_TYPE":"U","NORAD_CAT_ID":55173,"ELEMENT_SET_NO":999,"REV_AT_EPOCH":15613,"BSTAR":0.00015811174,"MEAN_MOTION_DOT":7.4e-7,"MEAN_MOTION_DDOT":0},{"OBJECT_NAME":"ONEWEB-0711","OBJECT_ID":"2023-004AL","EPOCH":"2026-03-22T06:33:50.171040","MEAN_MOTION":13.11415765,"ECCENTRICITY":0.00014267,"INCLINATION":87.8893,"RA_OF_ASC_NODE":38.3426,"ARG_OF_PERICENTER":59.0228,"MEAN_ANOMALY":301.104,"EPHEMERIS_TYPE":0,"CLASSIFICATION_TYPE":"U","NORAD_CAT_ID":55174,"ELEMENT_SET_NO":999,"REV_AT_EPOCH":15444,"BSTAR":-0.00022287783,"MEAN_MOTION_DOT":-6.6e-7,"MEAN_MOTION_DDOT":0},{"OBJECT_NAME":"ONEWEB-0713","OBJECT_ID":"2023-004AM","EPOCH":"2026-03-21T21:51:21.314304","MEAN_MOTION":13.11418471,"ECCENTRICITY":0.00016708,"INCLINATION":87.8893,"RA_OF_ASC_NODE":38.4139,"ARG_OF_PERICENTER":70.358,"MEAN_ANOMALY":289.7728,"EPHEMERIS_TYPE":0,"CLASSIFICATION_TYPE":"U","NORAD_CAT_ID":55175,"ELEMENT_SET_NO":999,"REV_AT_EPOCH":15438,"BSTAR":-0.0014847195,"MEAN_MOTION_DOT":-5.14e-6,"MEAN_MOTION_DDOT":0},{"OBJECT_NAME":"ONEWEB-0715","OBJECT_ID":"2023-004AN","EPOCH":"2026-03-21T21:44:01.816512","MEAN_MOTION":13.11417051,"ECCENTRICITY":0.00024494,"INCLINATION":87.8892,"RA_OF_ASC_NODE":38.4146,"ARG_OF_PERICENTER":69.3458,"MEAN_ANOMALY":290.7933,"EPHEMERIS_TYPE":0,"CLASSIFICATION_TYPE":"U","NORAD_CAT_ID":55176,"ELEMENT_SET_NO":999,"REV_AT_EPOCH":15442,"BSTAR":-0.0015342753,"MEAN_MOTION_DOT":-5.31e-6,"MEAN_MOTION_DDOT":0},{"OBJECT_NAME":"ONEWEB-0716","OBJECT_ID":"2023-004AP","EPOCH":"2026-03-22T06:00:11.255328","MEAN_MOTION":13.17649984,"ECCENTRICITY":0.00019051,"INCLINATION":87.9171,"RA_OF_ASC_NODE":23.1308,"ARG_OF_PERICENTER":85.8171,"MEAN_ANOMALY":274.3179,"EPHEMERIS_TYPE":0,"CLASSIFICATION_TYPE":"U","NORAD_CAT_ID":55177,"ELEMENT_SET_NO":999,"REV_AT_EPOCH":15613,"BSTAR":0.00011053349,"MEAN_MOTION_DOT":5.6e-7,"MEAN_MOTION_DDOT":0},{"OBJECT_NAME":"ONEWEB-0717","OBJECT_ID":"2023-004AQ","EPOCH":"2026-03-22T05:35:52.630656","MEAN_MOTION":13.1764993,"ECCENTRICITY":0.00016012,"INCLINATION":87.918,"RA_OF_ASC_NODE":23.1149,"ARG_OF_PERICENTER":57.0937,"MEAN_ANOMALY":303.0349,"EPHEMERIS_TYPE":0,"CLASSIFICATION_TYPE":"U","NORAD_CAT_ID":55178,"ELEMENT_SET_NO":999,"REV_AT_EPOCH":15618,"BSTAR":0.00019815081,"MEAN_MOTION_DOT":9.0e-7,"MEAN_MOTION_DDOT":0},{"OBJECT_NAME":"ONEWEB-0719","OBJECT_ID":"2023-004AR","EPOCH":"2026-03-22T05:50:27.045312","MEAN_MOTION":13.17649229,"ECCENTRICITY":0.00017606,"INCLINATION":87.9181,"RA_OF_ASC_NODE":23.0941,"ARG_OF_PERICENTER":84.1292,"MEAN_ANOMALY":276.004,"EPHEMERIS_TYPE":0,"CLASSIFICATION_TYPE":"U","NORAD_CAT_ID":55179,"ELEMENT_SET_NO":999,"REV_AT_EPOCH":15613,"BSTAR":0.00020986828,"MEAN_MOTION_DOT":9.4e-7,"MEAN_MOTION_DDOT":0},{"OBJECT_NAME":"ONEWEB-0530","OBJECT_ID":"2023-029A","EPOCH":"2026-03-22T01:06:05.982912","MEAN_MOTION":13.20771223,"ECCENTRICITY":0.00011939,"INCLINATION":87.9141,"RA_OF_ASC_NODE":291.878,"ARG_OF_PERICENTER":81.5817,"MEAN_ANOMALY":278.5452,"EPHEMERIS_TYPE":0,"CLASSIFICATION_TYPE":"U","NORAD_CAT_ID":55796,"ELEMENT_SET_NO":999,"REV_AT_EPOCH":14964,"BSTAR":-3.105089e-5,"MEAN_MOTION_DOT":0,"MEAN_MOTION_DDOT":0},{"OBJECT_NAME":"ONEWEB-0534","OBJECT_ID":"2023-029B","EPOCH":"2026-03-22T02:37:00.668064","MEAN_MOTION":13.20771399,"ECCENTRICITY":0.00017312,"INCLINATION":87.9145,"RA_OF_ASC_NODE":291.8639,"ARG_OF_PERICENTER":91.928,"MEAN_ANOMALY":268.2051,"EPHEMERIS_TYPE":0,"CLASSIFICATION_TYPE":"U","NORAD_CAT_ID":55797,"ELEMENT_SET_NO":999,"REV_AT_EPOCH":14965,"BSTAR":-0.00015156326,"MEAN_MOTION_DOT":-4.9e-7,"MEAN_MOTION_DDOT":0},{"OBJECT_NAME":"ONEWEB-0556","OBJECT_ID":"2023-029C","EPOCH":"2026-03-22T02:46:06.121632","MEAN_MOTION":13.20772113,"ECCENTRICITY":0.00015428,"INCLINATION":87.9142,"RA_OF_ASC_NODE":291.8647,"ARG_OF_PERICENTER":121.1636,"MEAN_ANOMALY":238.9649,"EPHEMERIS_TYPE":0,"CLASSIFICATION_TYPE":"U","NORAD_CAT_ID":55798,"ELEMENT_SET_NO":999,"REV_AT_EPOCH":14965,"BSTAR":-0.0001468789,"MEAN_MOTION_DOT":-4.7e-7,"MEAN_MOTION_DDOT":0},{"OBJECT_NAME":"ONEWEB-0562","OBJECT_ID":"2023-029D","EPOCH":"2026-03-22T02:27:55.003680","MEAN_MOTION":13.2077144,"ECCENTRICITY":8.251e-5,"INCLINATION":87.9144,"RA_OF_ASC_NODE":291.8473,"ARG_OF_PERICENTER":96.7008,"MEAN_ANOMALY":263.4219,"EPHEMERIS_TYPE":0,"CLASSIFICATION_TYPE":"U","NORAD_CAT_ID":55799,"ELEMENT_SET_NO":999,"REV_AT_EPOCH":14965,"BSTAR":-0.00013416444,"MEAN_MOTION_DOT":-4.2e-7,"MEAN_MOTION_DDOT":0},{"OBJECT_NAME":"ONEWEB-0563","OBJECT_ID":"2023-029E","EPOCH":"2026-03-22T02:18:48.497760","MEAN_MOTION":13.20769821,"ECCENTRICITY":0.00017616,"INCLINATION":87.9143,"RA_OF_ASC_NODE":291.879,"ARG_OF_PERICENTER":95.6845,"MEAN_ANOMALY":264.4489,"EPHEMERIS_TYPE":0,"CLASSIFICATION_TYPE":"U","NORAD_CAT_ID":55800,"ELEMENT_SET_NO":999,"REV_AT_EPOCH":14964,"BSTAR":0.00010637818,"MEAN_MOTION_DOT":5.6e-7,"MEAN_MOTION_DDOT":0},{"OBJECT_NAME":"ONEWEB-0564","OBJECT_ID":"2023-029F","EPOCH":"2026-03-22T02:09:44.277984","MEAN_MOTION":13.20770886,"ECCENTRICITY":0.0001296,"INCLINATION":87.9144,"RA_OF_ASC_NODE":291.8525,"ARG_OF_PERICENTER":86.56,"MEAN_ANOMALY":273.5681,"EPHEMERIS_TYPE":0,"CLASSIFICATION_TYPE":"U","NORAD_CAT_ID":55801,"ELEMENT_SET_NO":999,"REV_AT_EPOCH":14965,"BSTAR":0.00032475692,"MEAN_MOTION_DOT":1.45e-6,"MEAN_MOTION_DDOT":0},{"OBJECT_NAME":"ONEWEB-0638","OBJECT_ID":"2023-029G","EPOCH":"2026-03-21T20:34:57.099648","MEAN_MOTION":13.14504696,"ECCENTRICITY":0.0001256,"INCLINATION":87.8955,"RA_OF_ASC_NODE":307.1895,"ARG_OF_PERICENTER":101.851,"MEAN_ANOMALY":258.2761,"EPHEMERIS_TYPE":0,"CLASSIFICATION_TYPE":"U","NORAD_CAT_ID":55802,"ELEMENT_SET_NO":999,"REV_AT_EPOCH":14792,"BSTAR":0.00043148672,"MEAN_MOTION_DOT":1.73e-6,"MEAN_MOTION_DDOT":0},{"OBJECT_NAME":"ONEWEB-0639","OBJECT_ID":"2023-029H","EPOCH":"2026-03-22T05:19:14.212992","MEAN_MOTION":13.19726052,"ECCENTRICITY":0.0002638,"INCLINATION":87.921,"RA_OF_ASC_NODE":322.3115,"ARG_OF_PERICENTER":94.445,"MEAN_ANOMALY":265.6984,"EPHEMERIS_TYPE":0,"CLASSIFICATION_TYPE":"U","NORAD_CAT_ID":55803,"ELEMENT_SET_NO":999,"REV_AT_EPOCH":14743,"BSTAR":0.00018035717,"MEAN_MOTION_DOT":8.5e-7,"MEAN_MOTION_DDOT":0},{"OBJECT_NAME":"ONEWEB-0640","OBJECT_ID":"2023-029J","EPOCH":"2026-03-22T04:07:07.341600","MEAN_MOTION":13.14502523,"ECCENTRICITY":0.00018455,"INCLINATION":87.8958,"RA_OF_ASC_NODE":307.1174,"ARG_OF_PERICENTER":102.5512,"MEAN_ANOMALY":257.5824,"EPHEMERIS_TYPE":0,"CLASSIFICATION_TYPE":"U","NORAD_CAT_ID":55804,"ELEMENT_SET_NO":999,"REV_AT_EPOCH":14798,"BSTAR":0.00129472,"MEAN_MOTION_DOT":4.93e-6,"MEAN_MOTION_DDOT":0},{"OBJECT_NAME":"ONEWEB-0641","OBJECT_ID":"2023-029K","EPOCH":"2026-03-22T05:12:24.232032","MEAN_MOTION":13.19726243,"ECCENTRICITY":0.00018945,"INCLINATION":87.9208,"RA_OF_ASC_NODE":322.2997,"ARG_OF_PERICENTER":83.5886,"MEAN_ANOMALY":276.5462,"EPHEMERIS_TYPE":0,"CLASSIFICATION_TYPE":"U","NORAD_CAT_ID":55805,"ELEMENT_SET_NO":999,"REV_AT_EPOCH":14744,"BSTAR":0.00029477963,"MEAN_MOTION_DOT":1.31e-6,"MEAN_MOTION_DDOT":0},{"OBJECT_NAME":"ONEWEB-0642","OBJECT_ID":"2023-029L","EPOCH":"2026-03-22T05:05:35.217024","MEAN_MOTION":13.19725307,"ECCENTRICITY":0.00025561,"INCLINATION":87.9208,"RA_OF_ASC_NODE":322.3147,"ARG_OF_PERICENTER":87.157,"MEAN_ANOMALY":272.9855,"EPHEMERIS_TYPE":0,"CLASSIFICATION_TYPE":"U","NORAD_CAT_ID":55806,"ELEMENT_SET_NO":999,"REV_AT_EPOCH":14743,"BSTAR":1.510139e-5,"MEAN_MOTION_DOT":1.9e-7,"MEAN_MOTION_DDOT":0},{"OBJECT_NAME":"ONEWEB-0643","OBJECT_ID":"2023-029M","EPOCH":"2026-03-22T01:34:06.670272","MEAN_MOTION":13.14503765,"ECCENTRICITY":0.00023635,"INCLINATION":87.8956,"RA_OF_ASC_NODE":307.1258,"ARG_OF_PERICENTER":82.6814,"MEAN_ANOMALY":277.4585,"EPHEMERIS_TYPE":0,"CLASSIFICATION_TYPE":"U","NORAD_CAT_ID":55807,"ELEMENT_SET_NO":999,"REV_AT_EPOCH":14794,"BSTAR":0.00059743762,"MEAN_MOTION_DOT":2.34e-6,"MEAN_MOTION_DDOT":0},{"OBJECT_NAME":"ONEWEB-0644","OBJECT_ID":"2023-029N","EPOCH":"2026-03-22T04:58:45.848640","MEAN_MOTION":13.19726412,"ECCENTRICITY":0.00021079,"INCLINATION":87.9199,"RA_OF_ASC_NODE":322.3215,"ARG_OF_PERICENTER":83.8396,"MEAN_ANOMALY":276.2977,"EPHEMERIS_TYPE":0,"CLASSIFICATION_TYPE":"U","NORAD_CAT_ID":55808,"ELEMENT_SET_NO":999,"REV_AT_EPOCH":14743,"BSTAR":1.1519711e-5,"MEAN_MOTION_DOT":1.8e-7,"MEAN_MOTION_DDOT":0}]
